{
  "type": "Feature",
  "properties": {
    "id": "london-cc",
    "name": "London Congestion Charge",
    "authority": "Transport for London",
    "kind": "congestion",
    "charge_pence": 1500,
    "is_restriction": false,
    "applies_hours_json": {
      "timezone": "Europe/London",
      "windows": [
        {
          "days": [
            1,
            2,
            3,
            4,
            5
          ],
          "start": "07:00",
          "end": "18:00"
        },
        {
          "days": [
            6,
            7
          ],
          "start": "12:00",
          "end": "18:00"
        }
      ],
      "exemptDates": [
        "12-25"
      ],
      "weekendLikeDates": [
        "2026-01-01",
        "2026-04-03",
        "2026-04-06",
        "2026-05-04",
        "2026-05-25",
        "2026-08-31",
        "2026-12-28",
        "2027-01-01"
      ]
    },
    "source_url": "https://tfl.gov.uk/modes/driving/congestion-charge",
    "verified_on": "2026-08-16",
    "operator_url": "https://tfl.gov.uk/modes/driving/congestion-charge",
    "dataset_version": "2026-08-16"
  },
  "geometry": {
    "type": "MultiPolygon",
    "coordinates": [
      [
        [
          [
            -0.2,
            51.486
          ],
          [
            -0.07,
            51.486
          ],
          [
            -0.07,
            51.535
          ],
          [
            -0.2,
            51.535
          ],
          [
            -0.2,
            51.486
          ]
        ]
      ]
    ]
  }
}
